{
 "generated_at": "2026-07-17T07:16:58Z",
 "sources": [
  {
   "name": "CelesTrak",
   "url": "https://celestrak.org/NORAD/elements/",
   "license": "frei verfügbar; Attribution. Ursprünglich USSPACECOM/Space-Track."
  },
  {
   "name": "GCAT (J. McDowell, planet4589.org)",
   "url": "https://planet4589.org/space/gcat/",
   "license": "CC-BY 4.0"
  }
 ],
 "satellites": [
  {
   "norad": 39766,
   "name": "ALOS-2",
   "intl": "2014-029A",
   "group": "resource",
   "gcat": {
    "class": "C",
    "category": "IMG",
    "owner": "JAXA",
    "state": "J"
   },
   "omm": {
    "OBJECT_NAME": "ALOS-2",
    "OBJECT_ID": "2014-029A",
    "EPOCH": "2026-07-16T19:55:11.720928",
    "MEAN_MOTION": 14.79469553,
    "ECCENTRICITY": 0.0001595,
    "INCLINATION": 97.9234,
    "RA_OF_ASC_NODE": 294.5699,
    "ARG_OF_PERICENTER": 91.1105,
    "MEAN_ANOMALY": 269.0289,
    "EPHEMERIS_TYPE": 0,
    "CLASSIFICATION_TYPE": "U",
    "NORAD_CAT_ID": 39766,
    "ELEMENT_SET_NO": 999,
    "REV_AT_EPOCH": 65596,
    "BSTAR": 0.00011037,
    "MEAN_MOTION_DOT": 0.00000773,
    "MEAN_MOTION_DDOT": 0
   }
  },
  {
   "norad": 60182,
   "name": "ALOS-4 (DAICHI-4)",
   "intl": "2024-123A",
   "group": "resource",
   "gcat": {
    "class": "C",
    "category": "IMG",
    "owner": "JAXA",
    "state": "J"
   },
   "omm": {
    "OBJECT_NAME": "ALOS-4 (DAICHI-4)",
    "OBJECT_ID": "2024-123A",
    "EPOCH": "2026-07-16T20:23:03.802848",
    "MEAN_MOTION": 14.79472676,
    "ECCENTRICITY": 0.0001542,
    "INCLINATION": 97.9221,
    "RA_OF_ASC_NODE": 294.5995,
    "ARG_OF_PERICENTER": 96.9048,
    "MEAN_ANOMALY": 263.2339,
    "EPHEMERIS_TYPE": 0,
    "CLASSIFICATION_TYPE": "U",
    "NORAD_CAT_ID": 60182,
    "ELEMENT_SET_NO": 999,
    "REV_AT_EPOCH": 11026,
    "BSTAR": 0.00010149,
    "MEAN_MOTION_DOT": 0.00000707,
    "MEAN_MOTION_DDOT": 0
   }
  },
  {
   "norad": 41785,
   "name": "ALSAT-1B",
   "intl": "2016-059C",
   "group": "resource",
   "gcat": {
    "class": "C",
    "category": "IMG",
    "owner": "ASAL",
    "state": "DZ"
   },
   "omm": {
    "OBJECT_NAME": "ALSAT-1B",
    "OBJECT_ID": "2016-059C",
    "EPOCH": "2026-07-16T20:55:40.964160",
    "MEAN_MOTION": 14.72295901,
    "ECCENTRICITY": 0.0010404,
    "INCLINATION": 97.7749,
    "RA_OF_ASC_NODE": 205.3551,
    "ARG_OF_PERICENTER": 124.9136,
    "MEAN_ANOMALY": 235.3051,
    "EPHEMERIS_TYPE": 0,
    "CLASSIFICATION_TYPE": "U",
    "NORAD_CAT_ID": 41785,
    "ELEMENT_SET_NO": 999,
    "REV_AT_EPOCH": 52494,
    "BSTAR": 0.000066375,
    "MEAN_MOTION_DOT": 0.00000373,
    "MEAN_MOTION_DDOT": 0
   }
  },
  {
   "norad": 27424,
   "name": "AQUA",
   "intl": "2002-022A",
   "group": "resource",
   "gcat": {
    "class": "C",
    "category": "IMG",
    "owner": "GSFC",
    "state": "US"
   },
   "omm": {
    "OBJECT_NAME": "AQUA",
    "OBJECT_ID": "2002-022A",
    "EPOCH": "2026-07-16T06:55:12.936288",
    "MEAN_MOTION": 14.62197882,
    "ECCENTRICITY": 0.0000983,
    "INCLINATION": 98.4296,
    "RA_OF_ASC_NODE": 167.1566,
    "ARG_OF_PERICENTER": 113.3067,
    "MEAN_ANOMALY": 21.1629,
    "EPHEMERIS_TYPE": 0,
    "CLASSIFICATION_TYPE": "U",
    "NORAD_CAT_ID": 27424,
    "ELEMENT_SET_NO": 999,
    "REV_AT_EPOCH": 28752,
    "BSTAR": 0.000077532,
    "MEAN_MOTION_DOT": 0.00000341,
    "MEAN_MOTION_DDOT": 0
   }
  },
  {
   "norad": 29268,
   "name": "ARIRANG-2 (KOMPSAT-2)",
   "intl": "2006-031A",
   "group": "resource",
   "gcat": {
    "class": "C",
    "category": "IMG",
    "owner": "KARI",
    "state": "KR"
   },
   "omm": {
    "OBJECT_NAME": "ARIRANG-2 (KOMPSAT-2)",
    "OBJECT_ID": "2006-031A",
    "EPOCH": "2026-07-16T19:37:14.788992",
    "MEAN_MOTION": 14.6467611,
    "ECCENTRICITY": 0.0014133,
    "INCLINATION": 97.8307,
    "RA_OF_ASC_NODE": 20.8312,
    "ARG_OF_PERICENTER": 345.6401,
    "MEAN_ANOMALY": 139.7997,
    "EPHEMERIS_TYPE": 0,
    "CLASSIFICATION_TYPE": "U",
    "NORAD_CAT_ID": 29268,
    "ELEMENT_SET_NO": 999,
    "REV_AT_EPOCH": 6581,
    "BSTAR": 0.000031558,
    "MEAN_MOTION_DOT": 0.00000123,
    "MEAN_MOTION_DDOT": 0
   }
  },
  {
   "norad": 38338,
   "name": "ARIRANG-3 (KOMPSAT-3)",
   "intl": "2012-025B",
   "group": "resource",
   "gcat": {
    "class": "C",
    "category": "IMG",
    "owner": "KARI",
    "state": "KR"
   },
   "omm": {
    "OBJECT_NAME": "ARIRANG-3 (KOMPSAT-3)",
    "OBJECT_ID": "2012-025B",
    "EPOCH": "2026-07-16T20:50:10.528224",
    "MEAN_MOTION": 14.62229824,
    "ECCENTRICITY": 0.0006126,
    "INCLINATION": 98.1186,
    "RA_OF_ASC_NODE": 154.8191,
    "ARG_OF_PERICENTER": 34.3527,
    "MEAN_ANOMALY": 325.807,
    "EPHEMERIS_TYPE": 0,
    "CLASSIFICATION_TYPE": "U",
    "NORAD_CAT_ID": 38338,
    "ELEMENT_SET_NO": 999,
    "REV_AT_EPOCH": 75568,
    "BSTAR": 0.000044807,
    "MEAN_MOTION_DOT": 0.00000179,
    "MEAN_MOTION_DDOT": 0
   }
  },
  {
   "norad": 39227,
   "name": "ARIRANG-5 (KOMPSAT-5)",
   "intl": "2013-042A",
   "group": "resource",
   "gcat": {
    "class": "C",
    "category": "IMG-R",
    "owner": "KARI",
    "state": "KR"
   },
   "omm": {
    "OBJECT_NAME": "ARIRANG-5 (KOMPSAT-5)",
    "OBJECT_ID": "2013-042A",
    "EPOCH": "2026-07-16T19:53:24.928800",
    "MEAN_MOTION": 15.04496381,
    "ECCENTRICITY": 0.0005256,
    "INCLINATION": 97.6202,
    "RA_OF_ASC_NODE": 24.1129,
    "ARG_OF_PERICENTER": 53.631,
    "MEAN_ANOMALY": 306.54,
    "EPHEMERIS_TYPE": 0,
    "CLASSIFICATION_TYPE": "U",
    "NORAD_CAT_ID": 39227,
    "ELEMENT_SET_NO": 999,
    "REV_AT_EPOCH": 70831,
    "BSTAR": 0.000031484,
    "MEAN_MOTION_DOT": 0.0000038,
    "MEAN_MOTION_DDOT": 0
   }
  },
  {
   "norad": 47719,
   "name": "ARKTIKA-M 1",
   "intl": "2021-016A",
   "group": "weather",
   "gcat": {
    "class": "C",
    "category": "MET",
    "owner": "ROSK",
    "state": "RU"
   },
   "omm": {
    "OBJECT_NAME": "ARKTIKA-M 1",
    "OBJECT_ID": "2021-016A",
    "EPOCH": "2026-07-14T09:46:38.558208",
    "MEAN_MOTION": 2.0061159,
    "ECCENTRICITY": 0.7297332,
    "INCLINATION": 63.2662,
    "RA_OF_ASC_NODE": 53.6722,
    "ARG_OF_PERICENTER": 270.0591,
    "MEAN_ANOMALY": 14.4994,
    "EPHEMERIS_TYPE": 0,
    "CLASSIFICATION_TYPE": "U",
    "NORAD_CAT_ID": 47719,
    "ELEMENT_SET_NO": 999,
    "REV_AT_EPOCH": 3933,
    "BSTAR": 0,
    "MEAN_MOTION_DOT": -0.00000301,
    "MEAN_MOTION_DDOT": 0
   }
  },
  {
   "norad": 58584,
   "name": "ARKTIKA-M 2",
   "intl": "2023-198A",
   "group": "weather",
   "gcat": {
    "class": "C",
    "category": "MET",
    "owner": "ROSK",
    "state": "RU"
   },
   "omm": {
    "OBJECT_NAME": "ARKTIKA-M 2",
    "OBJECT_ID": "2023-198A",
    "EPOCH": "2026-07-15T04:12:00.091584",
    "MEAN_MOTION": 2.00608092,
    "ECCENTRICITY": 0.69107365,
    "INCLINATION": 63.2178,
    "RA_OF_ASC_NODE": 151.2342,
    "ARG_OF_PERICENTER": 267.3397,
    "MEAN_ANOMALY": 18.7345,
    "EPHEMERIS_TYPE": 0,
    "CLASSIFICATION_TYPE": "U",
    "NORAD_CAT_ID": 58584,
    "ELEMENT_SET_NO": 999,
    "REV_AT_EPOCH": 1888,
    "BSTAR": 0,
    "MEAN_MOTION_DOT": 0.00000129,
    "MEAN_MOTION_DDOT": 0
   }
  },
  {
   "norad": 40298,
   "name": "ASNARO",
   "intl": "2014-070A",
   "group": "resource",
   "gcat": {
    "class": null,
    "category": "IMG",
    "owner": "JSS",
    "state": "J"
   },
   "omm": {
    "OBJECT_NAME": "ASNARO",
    "OBJECT_ID": "2014-070A",
    "EPOCH": "2026-07-16T20:33:18.733248",
    "MEAN_MOTION": 15.19393088,
    "ECCENTRICITY": 0.0004865,
    "INCLINATION": 97.3444,
    "RA_OF_ASC_NODE": 273.1732,
    "ARG_OF_PERICENTER": 84.0325,
    "MEAN_ANOMALY": 276.1464,
    "EPHEMERIS_TYPE": 0,
    "CLASSIFICATION_TYPE": "U",
    "NORAD_CAT_ID": 40298,
    "ELEMENT_SET_NO": 999,
    "REV_AT_EPOCH": 64851,
    "BSTAR": 0.0001773,
    "MEAN_MOTION_DOT": 0.00003686,
    "MEAN_MOTION_DDOT": 0
   }
  }
 ]
}
